{"fetched_at":"2026-07-06T08:47:05.309Z","source":"https://celestrak.org/NORAD/elements/gp.php?NAME=ICEYE&FORMAT=JSON","constellation":"iceye","records":[{"OBJECT_NAME":"ICEYE-X40","OBJECT_ID":"2024-149CK","EPOCH":"2026-07-05T04:54:35.484768","CLASSIFICATION_TYPE":"U","MEAN_MOTION":14.98017703,"ECCENTRICITY":0.0004726,"INCLINATION":97.679,"RA_OF_ASC_NODE":262.4117,"ARG_OF_PERICENTER":25.9479,"MEAN_ANOMALY":334.198,"EPHEMERIS_TYPE":0,"NORAD_CAT_ID":60549,"ELEMENT_SET_NO":999,"REV_AT_EPOCH":10277,"BSTAR":0.00023448655,"MEAN_MOTION_DOT":0.00002712,"MEAN_MOTION_DDOT":0},{"OBJECT_NAME":"ICEYE-X49","OBJECT_ID":"2024-247H","EPOCH":"2026-07-04T14:18:56.824992","CLASSIFICATION_TYPE":"U","MEAN_MOTION":15.13555072,"ECCENTRICITY":0.00008561,"INCLINATION":44.996,"RA_OF_ASC_NODE":264.4199,"ARG_OF_PERICENTER":236.0644,"MEAN_ANOMALY":124.0152,"EPHEMERIS_TYPE":0,"NORAD_CAT_ID":62384,"ELEMENT_SET_NO":999,"REV_AT_EPOCH":8481,"BSTAR":0.0003761138,"MEAN_MOTION_DOT":0.00006606,"MEAN_MOTION_DDOT":0},{"OBJECT_NAME":"ICEYE-X47","OBJECT_ID":"2024-247N","EPOCH":"2026-07-05T13:28:50.884320","CLASSIFICATION_TYPE":"U","MEAN_MOTION":15.1345649,"ECCENTRICITY":0.00022792,"INCLINATION":44.9958,"RA_OF_ASC_NODE":258.8504,"ARG_OF_PERICENTER":309.1031,"MEAN_ANOMALY":50.9644,"EPHEMERIS_TYPE":0,"NORAD_CAT_ID":62389,"ELEMENT_SET_NO":999,"REV_AT_EPOCH":8496,"BSTAR":0.0003184977,"MEAN_MOTION_DOT":0.00005538,"MEAN_MOTION_DDOT":0},{"OBJECT_NAME":"ICEYE-X42","OBJECT_ID":"2025-009CT","EPOCH":"2026-07-05T04:22:37.953408","CLASSIFICATION_TYPE":"U","MEAN_MOTION":14.91846198,"ECCENTRICITY":0.00013946,"INCLINATION":97.7391,"RA_OF_ASC_NODE":264.1735,"ARG_OF_PERICENTER":90.1108,"MEAN_ANOMALY":270.027,"EPHEMERIS_TYPE":0,"NORAD_CAT_ID":62698,"ELEMENT_SET_NO":999,"REV_AT_EPOCH":7997,"BSTAR":0.00032393618,"MEAN_MOTION_DOT":0.00003216,"MEAN_MOTION_DDOT":0},{"OBJECT_NAME":"ICEYE-X41","OBJECT_ID":"2025-009CV","EPOCH":"2026-07-05T04:28:47.400672","CLASSIFICATION_TYPE":"U","MEAN_MOTION":14.96881,"ECCENTRICITY":0.000123,"INCLINATION":97.7072,"RA_OF_ASC_NODE":265.452,"ARG_OF_PERICENTER":34.3255,"MEAN_ANOMALY":325.8046,"EPHEMERIS_TYPE":0,"NORAD_CAT_ID":62700,"ELEMENT_SET_NO":999,"REV_AT_EPOCH":8010,"BSTAR":0.00045844,"MEAN_MOTION_DOT":0.00005203,"MEAN_MOTION_DDOT":0},{"OBJECT_NAME":"ICEYE-X44","OBJECT_ID":"2025-009DC","EPOCH":"2026-07-05T05:03:33.920064","CLASSIFICATION_TYPE":"U","MEAN_MOTION":14.9612624,"ECCENTRICITY":0.0002369,"INCLINATION":97.7046,"RA_OF_ASC_NODE":265.0526,"ARG_OF_PERICENTER":86.1487,"MEAN_ANOMALY":274.0005,"EPHEMERIS_TYPE":0,"NORAD_CAT_ID":62707,"ELEMENT_SET_NO":999,"REV_AT_EPOCH":10263,"BSTAR":0.00043378,"MEAN_MOTION_DOT":0.00004825,"MEAN_MOTION_DDOT":0},{"OBJECT_NAME":"ICEYE-X48","OBJECT_ID":"2025-052AV","EPOCH":"2026-07-05T07:00:04.997664","CLASSIFICATION_TYPE":"U","MEAN_MOTION":14.98091487,"ECCENTRICITY":0.0002772,"INCLINATION":97.6839,"RA_OF_ASC_NODE":78.2021,"ARG_OF_PERICENTER":126.9563,"MEAN_ANOMALY":233.1913,"EPHEMERIS_TYPE":0,"NORAD_CAT_ID":63253,"ELEMENT_SET_NO":999,"REV_AT_EPOCH":7138,"BSTAR":0.00040087,"MEAN_MOTION_DOT":0.00004687,"MEAN_MOTION_DDOT":0},{"OBJECT_NAME":"ICEYE-X50","OBJECT_ID":"2025-052AX","EPOCH":"2026-07-05T15:02:55.468032","CLASSIFICATION_TYPE":"U","MEAN_MOTION":14.95340003,"ECCENTRICITY":0.00028974,"INCLINATION":97.6861,"RA_OF_ASC_NODE":78.1667,"ARG_OF_PERICENTER":122.3634,"MEAN_ANOMALY":237.7868,"EPHEMERIS_TYPE":0,"NORAD_CAT_ID":63255,"ELEMENT_SET_NO":999,"REV_AT_EPOCH":7140,"BSTAR":0.00018504888,"MEAN_MOTION_DOT":0.00001984,"MEAN_MOTION_DDOT":0},{"OBJECT_NAME":"ICEYE-X51","OBJECT_ID":"2025-052AZ","EPOCH":"2026-07-05T09:24:13.117536","CLASSIFICATION_TYPE":"U","MEAN_MOTION":15.00886512,"ECCENTRICITY":0.00019787,"INCLINATION":97.7588,"RA_OF_ASC_NODE":81.452,"ARG_OF_PERICENTER":70.5748,"MEAN_ANOMALY":289.5689,"EPHEMERIS_TYPE":0,"NORAD_CAT_ID":63257,"ELEMENT_SET_NO":999,"REV_AT_EPOCH":7153,"BSTAR":0.00033818976,"MEAN_MOTION_DOT":0.00004244,"MEAN_MOTION_DDOT":0},{"OBJECT_NAME":"ICEYE-X46","OBJECT_ID":"2025-052BA","EPOCH":"2026-07-05T06:56:24.961056","CLASSIFICATION_TYPE":"U","MEAN_MOTION":14.95340203,"ECCENTRICITY":0.0001555,"INCLINATION":97.6869,"RA_OF_ASC_NODE":77.8343,"ARG_OF_PERICENTER":81.1956,"MEAN_ANOMALY":278.9441,"EPHEMERIS_TYPE":0,"NORAD_CAT_ID":63258,"ELEMENT_SET_NO":999,"REV_AT_EPOCH":7135,"BSTAR":0.00019581,"MEAN_MOTION_DOT":0.00002103,"MEAN_MOTION_DDOT":0},{"OBJECT_NAME":"ICEYE-X54","OBJECT_ID":"2025-135AU","EPOCH":"2026-07-05T13:39:47.276352","CLASSIFICATION_TYPE":"U","MEAN_MOTION":14.94694365,"ECCENTRICITY":0.00013584,"INCLINATION":97.7736,"RA_OF_ASC_NODE":300.8152,"ARG_OF_PERICENTER":227.7133,"MEAN_ANOMALY":132.3972,"EPHEMERIS_TYPE":0,"NORAD_CAT_ID":64570,"ELEMENT_SET_NO":999,"REV_AT_EPOCH":5664,"BSTAR":0.00030230609,"MEAN_MOTION_DOT":0.00003223,"MEAN_MOTION_DDOT":0},{"OBJECT_NAME":"ICEYE-X52","OBJECT_ID":"2025-135AW","EPOCH":"2026-07-05T15:03:13.320000","CLASSIFICATION_TYPE":"U","MEAN_MOTION":14.93629522,"ECCENTRICITY":0.00005454,"INCLINATION":97.7762,"RA_OF_ASC_NODE":300.6749,"ARG_OF_PERICENTER":254.9146,"MEAN_ANOMALY":105.2013,"EPHEMERIS_TYPE":0,"NORAD_CAT_ID":64572,"ELEMENT_SET_NO":999,"REV_AT_EPOCH":5663,"BSTAR":0.00016083951,"MEAN_MOTION_DOT":0.00001642,"MEAN_MOTION_DDOT":0},{"OBJECT_NAME":"ICEYE-X57","OBJECT_ID":"2025-135BC","EPOCH":"2026-07-05T14:25:13.099584","CLASSIFICATION_TYPE":"U","MEAN_MOTION":15.00872303,"ECCENTRICITY":0.00020737,"INCLINATION":97.7997,"RA_OF_ASC_NODE":303.1213,"ARG_OF_PERICENTER":60.2637,"MEAN_ANOMALY":299.8793,"EPHEMERIS_TYPE":0,"NORAD_CAT_ID":64578,"ELEMENT_SET_NO":999,"REV_AT_EPOCH":5678,"BSTAR":0.00038491945,"MEAN_MOTION_DOT":0.00004837,"MEAN_MOTION_DDOT":0}]}
