ICEYE-X40               
1 60549U 24149CK  26186.20457737  .00002712  00000+0  23449-3 0  9998
2 60549  97.6790 262.4117 0004726  25.9479 334.1980 14.98017703102777
ICEYE-X49               
1 62384U 24247H   26185.59649103  .00006606  00000+0  37611-3 0  9999
2 62384  44.9960 264.4199 0000856 236.0644 124.0152 15.13555072 84816
ICEYE-X47               
1 62389U 24247N   26186.56170005  .00005538  00000+0  31850-3 0  9994
2 62389  44.9958 258.8504 0002279 309.1031  50.9644 15.13456490 84961
ICEYE-X42               
1 62698U 25009CT  26186.18238372  .00003216  00000+0  32394-3 0  9999
2 62698  97.7391 264.1735 0001394  90.1108 270.0270 14.91846198 79974
ICEYE-X41               
1 62700U 25009CV  26186.18665974  .00005203  00000+0  45844-3 0  9997
2 62700  97.7072 265.4520 0001230  34.3255 325.8046 14.96881000 80105
ICEYE-X44               
1 62707U 25009DC  26186.21080927  .00004825  00000+0  43378-3 0  9996
2 62707  97.7046 265.0526 0002369  86.1487 274.0005 14.96126240102632
ICEYE-X48               
1 63253U 25052AV  26186.29172452  .00004687  00000+0  40087-3 0  9994
2 63253  97.6839  78.2021 0002772 126.9563 233.1913 14.98091488 71386
ICEYE-X50               
1 63255U 25052AX  26186.62703088  .00001984  00000+0  18505-3 0  9995
2 63255  97.6861  78.1667 0002897 122.3634 237.7868 14.95340003 71404
ICEYE-X51               
1 63257U 25052AZ  26186.39181849  .00004244  00000+0  33819-3 0  9993
2 63257  97.7588  81.4520 0001978  70.5748 289.5689 15.00886512 71534
ICEYE-X46               
1 63258U 25052BA  26186.28917780  .00002103  00000+0  19581-3 0  9995
2 63258  97.6869  77.8343 0001554  81.1956 278.9441 14.95340203 71350
ICEYE-X54               
1 64570U 25135AU  26186.56929718  .00003223  00000+0  30231-3 0  9999
2 64570  97.7736 300.8152 0001358 227.7133 132.3972 14.94694365 56643
ICEYE-X52               
1 64572U 25135AW  26186.62723750  .00001642  00000+0  16084-3 0  9999
2 64572  97.7762 300.6749 0000545 254.9146 105.2013 14.93629522 56633
ICEYE-X57               
1 64578U 25135BC  26186.60084606  .00004837  00000+0  38492-3 0  9999
2 64578  97.7997 303.1213 0002073  60.2637 299.8793 15.00872303 56781
